GLOBALSTAR M094         
1 39074U 13005C   24333.52443155 -.00000103  00000+0  64318-5 0  9997
2 39074  51.9967  73.0736 0000855 137.7900 222.3032 12.62265609547057
GLOBALSTAR M096         
1 39075U 13005D   24332.90414517 -.00000085  00000+0  10667-3 0  9994
2 39075  52.0053 123.3200 0001187 117.5020 242.5967 12.62265124545870
GLOBALSTAR M078         
1 39076U 13005E   24333.11480075 -.00000135  00000+0 -17396-3 0  9994
2 39076  51.9861 207.4614 0001829  87.1336 272.9739 12.62266734544730
GLOBALSTAR M095         
1 39077U 13005F   24332.82492164 -.00000056  00000+0  26639-3 0  9995
2 39077  51.9782 205.6437 0001462  95.9196 264.1837 12.62268876544348
GLOBALSTAR M087         
1 52888U 22064A   24332.45757948 -.00000053  00000+0  15401-3 0  9990
2 52888  51.9782 359.7071 0035335   9.2013 350.9525 13.30671021119364
